CCSDS_OMM_VERS = 2.0
CREATION_DATE  = 
ORIGINATOR     = 

OBJECT_NAME    = UNKNOWN
OBJECT_ID      = 
CENTER_NAME    = EARTH
REF_FRAME      = TEME
TIME_SYSTEM    = UTC
MEAN_ELEMENT_THEORY = SGP/SGP4

EPOCH          = 2026-02-04T14:31:41.721600
MEAN_MOTION    = 12.95714602
ECCENTRICITY   = .01735407
INCLINATION    = 82.7096
RA_OF_ASC_NODE = 344.5361
ARG_OF_PERICENTER = 118.4102
MEAN_ANOMALY   = 243.4622

EPHEMERIS_TYPE = 0
CLASSIFICATION_TYPE = U
NORAD_CAT_ID   = 270284
ELEMENT_SET_NO = 999
REV_AT_EPOCH   = 27424
BSTAR          = .1730613E-1
MEAN_MOTION_DOT = .5262E-4
MEAN_MOTION_DDOT = 0

CCSDS_OMM_VERS = 2.0
CREATION_DATE  = 
ORIGINATOR     = 

OBJECT_NAME    = UNKNOWN
OBJECT_ID      = 
CENTER_NAME    = EARTH
REF_FRAME      = TEME
TIME_SYSTEM    = UTC
MEAN_ELEMENT_THEORY = SGP/SGP4

EPOCH          = 2026-01-28T11:22:25.781664
MEAN_MOTION    = 12.31682195
ECCENTRICITY   = .0142221
INCLINATION    = 82.4347
RA_OF_ASC_NODE = 305.6015
ARG_OF_PERICENTER = 298.5953
MEAN_ANOMALY   = 60.0873

EPHEMERIS_TYPE = 0
CLASSIFICATION_TYPE = U
NORAD_CAT_ID   = 270287
ELEMENT_SET_NO = 999
REV_AT_EPOCH   = 2032
BSTAR          = .41070322E-1
MEAN_MOTION_DOT = .5103E-4
MEAN_MOTION_DDOT = 0

CCSDS_OMM_VERS = 2.0
CREATION_DATE  = 
ORIGINATOR     = 

OBJECT_NAME    = UNKNOWN
OBJECT_ID      = 
CENTER_NAME    = EARTH
REF_FRAME      = TEME
TIME_SYSTEM    = UTC
MEAN_ELEMENT_THEORY = SGP/SGP4

EPOCH          = 2026-02-03T08:13:18.166368
MEAN_MOTION    = 12.95794369
ECCENTRICITY   = .00326332
INCLINATION    = 90.2393
RA_OF_ASC_NODE = 3.2399
ARG_OF_PERICENTER = 116.5132
MEAN_ANOMALY   = 243.9340

EPHEMERIS_TYPE = 0
CLASSIFICATION_TYPE = U
NORAD_CAT_ID   = 270288
ELEMENT_SET_NO = 999
REV_AT_EPOCH   = 27693
BSTAR          = .10186823E-2
MEAN_MOTION_DOT = .297E-5
MEAN_MOTION_DDOT = 0

CCSDS_OMM_VERS = 2.0
CREATION_DATE  = 
ORIGINATOR     = 

OBJECT_NAME    = UNKNOWN
OBJECT_ID      = 
CENTER_NAME    = EARTH
REF_FRAME      = TEME
TIME_SYSTEM    = UTC
MEAN_ELEMENT_THEORY = SGP/SGP4

EPOCH          = 2026-01-30T03:57:15.405696
MEAN_MOTION    = 12.50093555
ECCENTRICITY   = .00234832
INCLINATION    = 73.6024
RA_OF_ASC_NODE = 355.9041
ARG_OF_PERICENTER = 238.4111
MEAN_ANOMALY   = 121.4646

EPHEMERIS_TYPE = 0
CLASSIFICATION_TYPE = U
NORAD_CAT_ID   = 270292
ELEMENT_SET_NO = 999
REV_AT_EPOCH   = 28179
BSTAR          = .53827598E-2
MEAN_MOTION_DOT = .802E-5
MEAN_MOTION_DDOT = 0

CCSDS_OMM_VERS = 2.0
CREATION_DATE  = 
ORIGINATOR     = 

OBJECT_NAME    = UNKNOWN
OBJECT_ID      = 
CENTER_NAME    = EARTH
REF_FRAME      = TEME
TIME_SYSTEM    = UTC
MEAN_ELEMENT_THEORY = SGP/SGP4

EPOCH          = 2026-02-05T04:31:48.359424
MEAN_MOTION    = 14.54921965
ECCENTRICITY   = .000716
INCLINATION    = 98.6754
RA_OF_ASC_NODE = 203.1389
ARG_OF_PERICENTER = 141.2828
MEAN_ANOMALY   = 218.8882

EPHEMERIS_TYPE = 0
CLASSIFICATION_TYPE = U
NORAD_CAT_ID   = 270293
ELEMENT_SET_NO = 999
REV_AT_EPOCH   = 32767
BSTAR          = .70504281E-3
MEAN_MOTION_DOT = .2984E-4
MEAN_MOTION_DDOT = 0

CCSDS_OMM_VERS = 2.0
CREATION_DATE  = 
ORIGINATOR     = 

OBJECT_NAME    = UNKNOWN
OBJECT_ID      = 
CENTER_NAME    = EARTH
REF_FRAME      = TEME
TIME_SYSTEM    = UTC
MEAN_ELEMENT_THEORY = SGP/SGP4

EPOCH          = 2026-02-04T12:34:08.969952
MEAN_MOTION    = 14.30630574
ECCENTRICITY   = .00757265
INCLINATION    = 99.1687
RA_OF_ASC_NODE = 326.9247
ARG_OF_PERICENTER = 353.5213
MEAN_ANOMALY   = 6.4982

EPHEMERIS_TYPE = 0
CLASSIFICATION_TYPE = U
NORAD_CAT_ID   = 270294
ELEMENT_SET_NO = 999
REV_AT_EPOCH   = 32202
BSTAR          = .11378392E-2
MEAN_MOTION_DOT = .3018E-4
MEAN_MOTION_DDOT = 0

CCSDS_OMM_VERS = 2.0
CREATION_DATE  = 
ORIGINATOR     = 

OBJECT_NAME    = UNKNOWN
OBJECT_ID      = 
CENTER_NAME    = EARTH
REF_FRAME      = TEME
TIME_SYSTEM    = UTC
MEAN_ELEMENT_THEORY = SGP/SGP4

EPOCH          = 2026-01-27T15:24:48.606336
MEAN_MOTION    = 14.73401404
ECCENTRICITY   = .0091839
INCLINATION    = 97.7305
RA_OF_ASC_NODE = 355.5179
ARG_OF_PERICENTER = 285.9239
MEAN_ANOMALY   = 73.1864

EPHEMERIS_TYPE = 0
CLASSIFICATION_TYPE = U
NORAD_CAT_ID   = 270295
ELEMENT_SET_NO = 999
REV_AT_EPOCH   = 9578
BSTAR          = .5176994E-2
MEAN_MOTION_DOT = .36006E-3
MEAN_MOTION_DDOT = 0

CCSDS_OMM_VERS = 2.0
CREATION_DATE  = 
ORIGINATOR     = 

OBJECT_NAME    = UNKNOWN
OBJECT_ID      = 
CENTER_NAME    = EARTH
REF_FRAME      = TEME
TIME_SYSTEM    = UTC
MEAN_ELEMENT_THEORY = SGP/SGP4

EPOCH          = 2026-02-03T08:40:23.479968
MEAN_MOTION    = 12.98025984
ECCENTRICITY   = .00296658
INCLINATION    = 90.2408
RA_OF_ASC_NODE = 4.0034
ARG_OF_PERICENTER = 12.2281
MEAN_ANOMALY   = 347.9553

EPHEMERIS_TYPE = 0
CLASSIFICATION_TYPE = U
NORAD_CAT_ID   = 270296
ELEMENT_SET_NO = 999
REV_AT_EPOCH   = 29217
BSTAR          = .25722405E-2
MEAN_MOTION_DOT = .761E-5
MEAN_MOTION_DDOT = 0

CCSDS_OMM_VERS = 2.0
CREATION_DATE  = 
ORIGINATOR     = 

OBJECT_NAME    = UNKNOWN
OBJECT_ID      = 
CENTER_NAME    = EARTH
REF_FRAME      = TEME
TIME_SYSTEM    = UTC
MEAN_ELEMENT_THEORY = SGP/SGP4

EPOCH          = 2026-02-18T17:02:54.626208
MEAN_MOTION    = 2.08125902
ECCENTRICITY   = .73628437
INCLINATION    = 60.0179
RA_OF_ASC_NODE = 203.6663
ARG_OF_PERICENTER = 76.9941
MEAN_ANOMALY   = 349.4236

EPHEMERIS_TYPE = 0
CLASSIFICATION_TYPE = U
NORAD_CAT_ID   = 270298
ELEMENT_SET_NO = 999
REV_AT_EPOCH   = 1307
BSTAR          = .44860022E-2
MEAN_MOTION_DOT = .1691E-4
MEAN_MOTION_DDOT = 0

CCSDS_OMM_VERS = 2.0
CREATION_DATE  = 
ORIGINATOR     = 

OBJECT_NAME    = UNKNOWN
OBJECT_ID      = 
CENTER_NAME    = EARTH
REF_FRAME      = TEME
TIME_SYSTEM    = UTC
MEAN_ELEMENT_THEORY = SGP/SGP4

EPOCH          = 2026-02-01T16:20:34.876608
MEAN_MOTION    = 12.95914224
ECCENTRICITY   = .0026699
INCLINATION    = 90.2471
RA_OF_ASC_NODE = 8.9009
ARG_OF_PERICENTER = 166.3751
MEAN_ANOMALY   = 193.8095

EPHEMERIS_TYPE = 0
CLASSIFICATION_TYPE = U
NORAD_CAT_ID   = 270299
ELEMENT_SET_NO = 999
REV_AT_EPOCH   = 27029
BSTAR          = .18263177E-2
MEAN_MOTION_DOT = .527E-5
MEAN_MOTION_DDOT = 0

CCSDS_OMM_VERS = 2.0
CREATION_DATE  = 
ORIGINATOR     = 

OBJECT_NAME    = UNKNOWN
OBJECT_ID      = 
CENTER_NAME    = EARTH
REF_FRAME      = TEME
TIME_SYSTEM    = UTC
MEAN_ELEMENT_THEORY = SGP/SGP4

EPOCH          = 2026-01-22T08:29:13.394400
MEAN_MOTION    = 14.51853880
ECCENTRICITY   = .00319847
INCLINATION    = 98.8450
RA_OF_ASC_NODE = 50.9509
ARG_OF_PERICENTER = 108.0506
MEAN_ANOMALY   = 252.4176

EPHEMERIS_TYPE = 0
CLASSIFICATION_TYPE = U
NORAD_CAT_ID   = 270300
ELEMENT_SET_NO = 999
REV_AT_EPOCH   = 8582
BSTAR          = .21228864E-2
MEAN_MOTION_DOT = .8565E-4
MEAN_MOTION_DDOT = 0

CCSDS_OMM_VERS = 2.0
CREATION_DATE  = 
ORIGINATOR     = 

OBJECT_NAME    = UNKNOWN
OBJECT_ID      = 
CENTER_NAME    = EARTH
REF_FRAME      = TEME
TIME_SYSTEM    = UTC
MEAN_ELEMENT_THEORY = SGP/SGP4

EPOCH          = 2026-02-19T07:00:22.920480
MEAN_MOTION    = 14.49168429
ECCENTRICITY   = .00146047
INCLINATION    = 98.9277
RA_OF_ASC_NODE = 76.7149
ARG_OF_PERICENTER = 220.4138
MEAN_ANOMALY   = 139.5970

EPHEMERIS_TYPE = 0
CLASSIFICATION_TYPE = U
NORAD_CAT_ID   = 270302
ELEMENT_SET_NO = 999
REV_AT_EPOCH   = 25662
BSTAR          = .12656567E-2
MEAN_MOTION_DOT = .4776E-4
MEAN_MOTION_DDOT = 0

CCSDS_OMM_VERS = 2.0
CREATION_DATE  = 
ORIGINATOR     = 

OBJECT_NAME    = UNKNOWN
OBJECT_ID      = 
CENTER_NAME    = EARTH
REF_FRAME      = TEME
TIME_SYSTEM    = UTC
MEAN_ELEMENT_THEORY = SGP/SGP4

EPOCH          = 2026-02-18T07:32:19.410720
MEAN_MOTION    = 15.13250914
ECCENTRICITY   = .00002532
INCLINATION    = 98.6731
RA_OF_ASC_NODE = 77.2422
ARG_OF_PERICENTER = 75.4911
MEAN_ANOMALY   = 284.6344

EPHEMERIS_TYPE = 0
CLASSIFICATION_TYPE = U
NORAD_CAT_ID   = 270304
ELEMENT_SET_NO = 999
REV_AT_EPOCH   = 25841
BSTAR          = .4863641E-2
MEAN_MOTION_DOT = .8739E-3
MEAN_MOTION_DDOT = 0

CCSDS_OMM_VERS = 2.0
CREATION_DATE  = 
ORIGINATOR     = 

OBJECT_NAME    = UNKNOWN
OBJECT_ID      = 
CENTER_NAME    = EARTH
REF_FRAME      = TEME
TIME_SYSTEM    = UTC
MEAN_ELEMENT_THEORY = SGP/SGP4

EPOCH          = 2026-02-07T22:10:04.172160
MEAN_MOTION    = 14.37517259
ECCENTRICITY   = .00081952
INCLINATION    = 98.8218
RA_OF_ASC_NODE = 23.3043
ARG_OF_PERICENTER = 124.0847
MEAN_ANOMALY   = 236.1118

EPHEMERIS_TYPE = 0
CLASSIFICATION_TYPE = U
NORAD_CAT_ID   = 270305
ELEMENT_SET_NO = 999
REV_AT_EPOCH   = 25250
BSTAR          = .65119061E-3
MEAN_MOTION_DOT = .1905E-4
MEAN_MOTION_DDOT = 0

CCSDS_OMM_VERS = 2.0
CREATION_DATE  = 
ORIGINATOR     = 

OBJECT_NAME    = UNKNOWN
OBJECT_ID      = 
CENTER_NAME    = EARTH
REF_FRAME      = TEME
TIME_SYSTEM    = UTC
MEAN_ELEMENT_THEORY = SGP/SGP4

EPOCH          = 2026-02-05T04:13:51.286656
MEAN_MOTION    = 12.92697537
ECCENTRICITY   = .0027196
INCLINATION    = 90.2466
RA_OF_ASC_NODE = 4.0555
ARG_OF_PERICENTER = 277.4000
MEAN_ANOMALY   = 82.4028

EPHEMERIS_TYPE = 0
CLASSIFICATION_TYPE = U
NORAD_CAT_ID   = 270306
ELEMENT_SET_NO = 999
REV_AT_EPOCH   = 24756
BSTAR          = .20755046E-3
MEAN_MOTION_DOT = .63E-6
MEAN_MOTION_DDOT = 0

CCSDS_OMM_VERS = 2.0
CREATION_DATE  = 
ORIGINATOR     = 

OBJECT_NAME    = UNKNOWN
OBJECT_ID      = 
CENTER_NAME    = EARTH
REF_FRAME      = TEME
TIME_SYSTEM    = UTC
MEAN_ELEMENT_THEORY = SGP/SGP4

EPOCH          = 2026-02-05T15:38:15.878688
MEAN_MOTION    = 13.66536753
ECCENTRICITY   = .00759237
INCLINATION    = 82.6997
RA_OF_ASC_NODE = 178.2709
ARG_OF_PERICENTER = 141.5291
MEAN_ANOMALY   = 219.1308

EPHEMERIS_TYPE = 0
CLASSIFICATION_TYPE = U
NORAD_CAT_ID   = 270307
ELEMENT_SET_NO = 999
REV_AT_EPOCH   = 28440
BSTAR          = .18570288E-1
MEAN_MOTION_DOT = .15745E-3
MEAN_MOTION_DDOT = 0

